CCSDS_OMM_VERS = 2.0
CREATION_DATE  = 
ORIGINATOR     = 

OBJECT_NAME    = STARLINK-36809
OBJECT_ID      = 2026-036AB
CENTER_NAME    = EARTH
REF_FRAME      = TEME
TIME_SYSTEM    = UTC
MEAN_ELEMENT_THEORY = SGP/SGP4

EPOCH          = 2026-03-17T04:00:01.999584
MEAN_MOTION    = 15.55685576
ECCENTRICITY   = .0001453
INCLINATION    = 43.0004
RA_OF_ASC_NODE = 204.4586
ARG_OF_PERICENTER = 274.1543
MEAN_ANOMALY   = 283.6305

EPHEMERIS_TYPE = 0
CLASSIFICATION_TYPE = U
NORAD_CAT_ID   = 67929
ELEMENT_SET_NO = 999
REV_AT_EPOCH   = 484
BSTAR          = -.3039E-1
MEAN_MOTION_DOT = -.1894506E-1
MEAN_MOTION_DDOT = 0

CCSDS_OMM_VERS = 2.0
CREATION_DATE  = 
ORIGINATOR     = 

OBJECT_NAME    = STARLINK-36865
OBJECT_ID      = 2026-036AC
CENTER_NAME    = EARTH
REF_FRAME      = TEME
TIME_SYSTEM    = UTC
MEAN_ELEMENT_THEORY = SGP/SGP4

EPOCH          = 2026-03-17T04:00:01.999584
MEAN_MOTION    = 15.60284847
ECCENTRICITY   = .000151
INCLINATION    = 43.0001
RA_OF_ASC_NODE = 204.2017
ARG_OF_PERICENTER = 266.0176
MEAN_ANOMALY   = 35.5833

EPHEMERIS_TYPE = 0
CLASSIFICATION_TYPE = U
NORAD_CAT_ID   = 67930
ELEMENT_SET_NO = 999
REV_AT_EPOCH   = 484
BSTAR          = -.2538E-1
MEAN_MOTION_DOT = -.1886246E-1
MEAN_MOTION_DDOT = 0

CCSDS_OMM_VERS = 2.0
CREATION_DATE  = 
ORIGINATOR     = 

OBJECT_NAME    = STARLINK-36781
OBJECT_ID      = 2026-036AD
CENTER_NAME    = EARTH
REF_FRAME      = TEME
TIME_SYSTEM    = UTC
MEAN_ELEMENT_THEORY = SGP/SGP4

EPOCH          = 2026-03-17T04:00:01.999584
MEAN_MOTION    = 15.59691502
ECCENTRICITY   = .0001435
INCLINATION    = 43.0003
RA_OF_ASC_NODE = 204.2403
ARG_OF_PERICENTER = 268.4113
MEAN_ANOMALY   = 17.6439

EPHEMERIS_TYPE = 0
CLASSIFICATION_TYPE = U
NORAD_CAT_ID   = 67931
ELEMENT_SET_NO = 999
REV_AT_EPOCH   = 484
BSTAR          = -.25968E-1
MEAN_MOTION_DOT = -.1886107E-1
MEAN_MOTION_DDOT = 0

CCSDS_OMM_VERS = 2.0
CREATION_DATE  = 
ORIGINATOR     = 

OBJECT_NAME    = STARLINK-36301
OBJECT_ID      = 2026-037A
CENTER_NAME    = EARTH
REF_FRAME      = TEME
TIME_SYSTEM    = UTC
MEAN_ELEMENT_THEORY = SGP/SGP4

EPOCH          = 2026-03-17T03:43:05.458656
MEAN_MOTION    = 15.82053146
ECCENTRICITY   = .0001453
INCLINATION    = 42.9979
RA_OF_ASC_NODE = 152.8267
ARG_OF_PERICENTER = 282.4130
MEAN_ANOMALY   = 77.6579

EPHEMERIS_TYPE = 0
CLASSIFICATION_TYPE = U
NORAD_CAT_ID   = 67932
ELEMENT_SET_NO = 999
REV_AT_EPOCH   = 443
BSTAR          = .16533E-2
MEAN_MOTION_DOT = .363238E-2
MEAN_MOTION_DDOT = 0

CCSDS_OMM_VERS = 2.0
CREATION_DATE  = 
ORIGINATOR     = 

OBJECT_NAME    = STARLINK-36852
OBJECT_ID      = 2026-037B
CENTER_NAME    = EARTH
REF_FRAME      = TEME
TIME_SYSTEM    = UTC
MEAN_ELEMENT_THEORY = SGP/SGP4

EPOCH          = 2026-03-17T04:00:01.999584
MEAN_MOTION    = 15.68044943
ECCENTRICITY   = .0001587
INCLINATION    = 42.9992
RA_OF_ASC_NODE = 152.9538
ARG_OF_PERICENTER = 266.9273
MEAN_ANOMALY   = 80.8025

EPHEMERIS_TYPE = 0
CLASSIFICATION_TYPE = U
NORAD_CAT_ID   = 67933
ELEMENT_SET_NO = 999
REV_AT_EPOCH   = 440
BSTAR          = -.18484E-1
MEAN_MOTION_DOT = -.187611E-1
MEAN_MOTION_DDOT = 0

CCSDS_OMM_VERS = 2.0
CREATION_DATE  = 
ORIGINATOR     = 

OBJECT_NAME    = STARLINK-36861
OBJECT_ID      = 2026-037C
CENTER_NAME    = EARTH
REF_FRAME      = TEME
TIME_SYSTEM    = UTC
MEAN_ELEMENT_THEORY = SGP/SGP4

EPOCH          = 2026-03-17T03:41:00.242592
MEAN_MOTION    = 15.81387634
ECCENTRICITY   = .000507
INCLINATION    = 42.9983
RA_OF_ASC_NODE = 152.8153
ARG_OF_PERICENTER = 328.5670
MEAN_ANOMALY   = 31.4898

EPHEMERIS_TYPE = 0
CLASSIFICATION_TYPE = U
NORAD_CAT_ID   = 67934
ELEMENT_SET_NO = 999
REV_AT_EPOCH   = 443
BSTAR          = -.54253E-3
MEAN_MOTION_DOT = -.11018E-2
MEAN_MOTION_DDOT = 0

CCSDS_OMM_VERS = 2.0
CREATION_DATE  = 
ORIGINATOR     = 

OBJECT_NAME    = STARLINK-36860
OBJECT_ID      = 2026-037D
CENTER_NAME    = EARTH
REF_FRAME      = TEME
TIME_SYSTEM    = UTC
MEAN_ELEMENT_THEORY = SGP/SGP4

EPOCH          = 2026-03-17T04:00:01.999584
MEAN_MOTION    = 15.73621854
ECCENTRICITY   = .000135
INCLINATION    = 42.9993
RA_OF_ASC_NODE = 152.7998
ARG_OF_PERICENTER = 277.7237
MEAN_ANOMALY   = 131.9710

EPHEMERIS_TYPE = 0
CLASSIFICATION_TYPE = U
NORAD_CAT_ID   = 67935
ELEMENT_SET_NO = 999
REV_AT_EPOCH   = 440
BSTAR          = -.14964E-1
MEAN_MOTION_DOT = -.1881173E-1
MEAN_MOTION_DDOT = 0

CCSDS_OMM_VERS = 2.0
CREATION_DATE  = 
ORIGINATOR     = 

OBJECT_NAME    = STARLINK-36848
OBJECT_ID      = 2026-037E
CENTER_NAME    = EARTH
REF_FRAME      = TEME
TIME_SYSTEM    = UTC
MEAN_ELEMENT_THEORY = SGP/SGP4

EPOCH          = 2026-03-17T04:00:01.999584
MEAN_MOTION    = 15.71144227
ECCENTRICITY   = .0001483
INCLINATION    = 42.9995
RA_OF_ASC_NODE = 152.8289
ARG_OF_PERICENTER = 276.6776
MEAN_ANOMALY   = 121.0116

EPHEMERIS_TYPE = 0
CLASSIFICATION_TYPE = U
NORAD_CAT_ID   = 67936
ELEMENT_SET_NO = 999
REV_AT_EPOCH   = 440
BSTAR          = -.16683E-1
MEAN_MOTION_DOT = -.192258E-1
MEAN_MOTION_DDOT = 0

CCSDS_OMM_VERS = 2.0
CREATION_DATE  = 
ORIGINATOR     = 

OBJECT_NAME    = STARLINK-36370
OBJECT_ID      = 2026-037F
CENTER_NAME    = EARTH
REF_FRAME      = TEME
TIME_SYSTEM    = UTC
MEAN_ELEMENT_THEORY = SGP/SGP4

EPOCH          = 2026-03-16T14:03:19.748736
MEAN_MOTION    = 15.77571951
ECCENTRICITY   = .0006784
INCLINATION    = 42.9984
RA_OF_ASC_NODE = 156.3020
ARG_OF_PERICENTER = 282.4802
MEAN_ANOMALY   = 77.5309

EPHEMERIS_TYPE = 0
CLASSIFICATION_TYPE = U
NORAD_CAT_ID   = 67937
ELEMENT_SET_NO = 999
REV_AT_EPOCH   = 434
BSTAR          = -.25629E-2
MEAN_MOTION_DOT = -.42076E-2
MEAN_MOTION_DDOT = 0

CCSDS_OMM_VERS = 2.0
CREATION_DATE  = 
ORIGINATOR     = 

OBJECT_NAME    = STARLINK-36371
OBJECT_ID      = 2026-037G
CENTER_NAME    = EARTH
REF_FRAME      = TEME
TIME_SYSTEM    = UTC
MEAN_ELEMENT_THEORY = SGP/SGP4

EPOCH          = 2026-03-17T04:00:01.999584
MEAN_MOTION    = 15.78407980
ECCENTRICITY   = .0001161
INCLINATION    = 42.9994
RA_OF_ASC_NODE = 152.7044
ARG_OF_PERICENTER = 272.4146
MEAN_ANOMALY   = 174.7711

EPHEMERIS_TYPE = 0
CLASSIFICATION_TYPE = U
NORAD_CAT_ID   = 67938
ELEMENT_SET_NO = 999
REV_AT_EPOCH   = 440
BSTAR          = -.12215E-1
MEAN_MOTION_DOT = -.1898679E-1
MEAN_MOTION_DDOT = 0

CCSDS_OMM_VERS = 2.0
CREATION_DATE  = 
ORIGINATOR     = 

OBJECT_NAME    = STARLINK-36246
OBJECT_ID      = 2026-037H
CENTER_NAME    = EARTH
REF_FRAME      = TEME
TIME_SYSTEM    = UTC
MEAN_ELEMENT_THEORY = SGP/SGP4

EPOCH          = 2026-03-17T04:00:01.999584
MEAN_MOTION    = 15.71955596
ECCENTRICITY   = .0001459
INCLINATION    = 42.9996
RA_OF_ASC_NODE = 152.7894
ARG_OF_PERICENTER = 276.8925
MEAN_ANOMALY   = 136.6013

EPHEMERIS_TYPE = 0
CLASSIFICATION_TYPE = U
NORAD_CAT_ID   = 67939
ELEMENT_SET_NO = 999
REV_AT_EPOCH   = 431
BSTAR          = -.16195E-1
MEAN_MOTION_DOT = -.1931159E-1
MEAN_MOTION_DDOT = 0

CCSDS_OMM_VERS = 2.0
CREATION_DATE  = 
ORIGINATOR     = 

OBJECT_NAME    = STARLINK-36907
OBJECT_ID      = 2026-037J
CENTER_NAME    = EARTH
REF_FRAME      = TEME
TIME_SYSTEM    = UTC
MEAN_ELEMENT_THEORY = SGP/SGP4

EPOCH          = 2026-03-17T05:03:13.164192
MEAN_MOTION    = 15.82065782
ECCENTRICITY   = .000176
INCLINATION    = 42.9979
RA_OF_ASC_NODE = 152.3793
ARG_OF_PERICENTER = 331.4092
MEAN_ANOMALY   = 28.6683

EPHEMERIS_TYPE = 0
CLASSIFICATION_TYPE = U
NORAD_CAT_ID   = 67940
ELEMENT_SET_NO = 999
REV_AT_EPOCH   = 444
BSTAR          = .15596E-2
MEAN_MOTION_DOT = .341968E-2
MEAN_MOTION_DDOT = 0

