STARLINK-36809          
1 67929U 26036AB  26076.16668981 -.01894506  00000+0 -30390-1 0  9996
2 67929  43.0004 204.4586 0001453 274.1543 283.6305 15.55685576  4840
STARLINK-36865          
1 67930U 26036AC  26076.16668981 -.01886246  00000+0 -25380-1 0  9993
2 67930  43.0001 204.2017 0001510 266.0176  35.5833 15.60284847  4844
STARLINK-36781          
1 67931U 26036AD  26076.16668981 -.01886107  00000+0 -25968-1 0  9992
2 67931  43.0003 204.2403 0001435 268.4113  17.6439 15.59691502  4840
STARLINK-36301          
1 67932U 26037A   26076.15492429  .00363238  00000+0  16533-2 0  9996
2 67932  42.9979 152.8267 0001453 282.4130  77.6579 15.82053146  4430
STARLINK-36852          
1 67933U 26037B   26076.16668981 -.01876110  00000+0 -18484-1 0  9993
2 67933  42.9992 152.9538 0001587 266.9273  80.8025 15.68044943  4409
STARLINK-36861          
1 67934U 26037C   26076.15347503 -.00110180  00000+0 -54253-3 0  9990
2 67934  42.9983 152.8153 0005070 328.5670  31.4898 15.81387634  4434
STARLINK-36860          
1 67935U 26037D   26076.16668981 -.01881173  00000+0 -14964-1 0  9999
2 67935  42.9993 152.7998 0001350 277.7237 131.9710 15.73621854  4405
STARLINK-36848          
1 67936U 26037E   26076.16668981 -.01922580  00000+0 -16683-1 0  9998
2 67936  42.9995 152.8289 0001483 276.6776 121.0116 15.71144227  4407
STARLINK-36370          
1 67937U 26037F   26075.58564524 -.00420760  00000+0 -25629-2 0  9995
2 67937  42.9984 156.3020 0006784 282.4802  77.5309 15.77571951  4348
STARLINK-36371          
1 67938U 26037G   26076.16668981 -.01898679  00000+0 -12215-1 0  9998
2 67938  42.9994 152.7044 0001161 272.4146 174.7711 15.78407980  4405
STARLINK-36246          
1 67939U 26037H   26076.16668981 -.01931159  00000+0 -16195-1 0  9991
2 67939  42.9996 152.7894 0001459 276.8925 136.6013 15.71955596  4310
STARLINK-36907          
1 67940U 26037J   26076.21056903  .00341968  00000+0  15596-2 0  9999
2 67940  42.9979 152.3793 0001760 331.4092  28.6683 15.82065782  4443
